$$SOE
2461295.500000000, A.D. 2026-Sep-12 00:00:00.0000, -3.734279426427086E+08, 2.771367318483968E+08, 6.110114938850372E+07,
2461302.500000000, A.D. 2026-Sep-19 00:00:00.0000, -3.799260382854745E+08, 2.697502790242957E+08, 6.275424588131669E+07,
2461309.500000000, A.D. 2026-Sep-26 00:00:00.0000, -3.862467737211167E+08, 2.622380934404236E+08, 6.437798018810657E+07,
2461316.500000000, A.D. 2026-Oct-03 00:00:00.0000, -3.923884754759555E+08, 2.546045475777270E+08, 6.597180720082022E+07,
2461323.500000000, A.D. 2026-Oct-10 00:00:00.0000, -3.983495687590075E+08, 2.468540031885636E+08, 6.753520215958264E+07,
2461330.500000000, A.D. 2026-Oct-17 00:00:00.0000, -4.041285753033178E+08, 2.389908096878228E+08, 6.906766029269303E+07,
2461337.500000000, A.D. 2026-Oct-24 00:00:00.0000, -4.097241112394184E+08, 2.310193025636829E+08, 7.056869644764949E+07,
2461344.500000000, A.D. 2026-Oct-31 00:00:00.0000, -4.151348849055493E+08, 2.229438017365511E+08, 7.203784469977599E+07,
2461351.500000000, A.D. 2026-Nov-07 00:00:00.0000, -4.203596942586102E+08, 2.147686099354933E+08, 7.347465791443455E+07,
2461358.500000000, A.D. 2026-Nov-14 00:00:00.0000, -4.253974236876879E+08, 2.064980119746367E+08, 7.487870731788869E+07,
2461365.500000000, A.D. 2026-Nov-21 00:00:00.0000, -4.302470420451546E+08, 1.981362756065315E+08, 7.624958229976125E+07,
2461372.500000000, A.D. 2026-Nov-28 00:00:00.0000, -4.349076028971971E+08, 1.896876509407447E+08, 7.758689029408923E+07,
2461379.500000000, A.D. 2026-Dec-05 00:00:00.0000, -4.393782433756518E+08, 1.811563677681184E+08, 7.889025635437514E+07,
2461386.500000000, A.D. 2026-Dec-12 00:00:00.0000, -4.436581814663530E+08, 1.725466338964033E+08, 8.015932266226855E+07,
2461393.500000000, A.D. 2026-Dec-19 00:00:00.0000, -4.477467136238370E+08, 1.638626344985572E+08, 8.139374814434630E+07,
2461400.500000000, A.D. 2026-Dec-26 00:00:00.0000, -4.516432128577541E+08, 1.551085316023659E+08, 8.259320814020306E+07,
2461407.500000000, A.D. 2027-Jan-02 00:00:00.0000, -4.553471270167670E+08, 1.462884635275340E+08, 8.375739408175495E+07,
2461414.500000000, A.D. 2027-Jan-09 00:00:00.0000, -4.588579771538814E+08, 1.374065442871137E+08, 8.488601317512946E+07,
2461421.500000000, A.D. 2027-Jan-16 00:00:00.0000, -4.621753559385436E+08, 1.284668629584402E+08, 8.597878808275966E+07,
2461428.500000000, A.D. 2027-Jan-23 00:00:00.0000, -4.652989260702065E+08, 1.194734829798026E+08, 8.703545659811997E+07,
2461435.500000000, A.D. 2027-Jan-30 00:00:00.0000, -4.682284185067774E+08, 1.104304413204331E+08, 8.805577129181391E+07,
2461442.500000000, A.D. 2027-Feb-06 00:00:00.0000, -4.709636300851724E+08, 1.013417478591154E+08, 8.903949911784139E+07,
2461449.500000000, A.D. 2027-Feb-13 00:00:00.0000, -4.735044209970406E+08, 9.221138618677999E+07, 8.998642112218927E+07,
2461456.500000000, A.D. 2027-Feb-20 00:00:00.0000, -4.758507144870918E+08, 8.304331503871249E+07, 9.089633240644784E+07,
2461463.500000000, A.D. 2027-Feb-27 00:00:00.0000, -4.780024973813978E+08, 7.384146714112189E+07, 9.176904195648156E+07,
2461470.500000000, A.D. 2027-Mar-06 00:00:00.0000, -4.799598184275203E+08, 6.460974739379922E+07, 9.260437221645963E+07,
2461477.500000000, A.D. 2027-Mar-13 00:00:00.0000, -4.817227860446876E+08, 5.535203243568966E+07, 9.340215872178626E+07,
2461484.500000000, A.D. 2027-Mar-20 00:00:00.0000, -4.832915666128397E+08, 4.607217075524607E+07, 9.416224982582350E+07,
2461491.500000000, A.D. 2027-Mar-27 00:00:00.0000, -4.846663830985791E+08, 3.677398279379577E+07, 9.488450645686421E+07,
2461498.500000000, A.D. 2027-Apr-03 00:00:00.0000, -4.858475138147099E+08, 2.746126099160945E+07, 9.556880188270980E+07,
2461505.500000000, A.D. 2027-Apr-10 00:00:00.0000, -4.868352912515821E+08, 1.813776979704157E+07, 9.621502147903453E+07,
2461512.500000000, A.D. 2027-Apr-17 00:00:00.0000, -4.876301009578363E+08, 8.807245621805701E+06, 9.682306249837889E+07,
2461519.500000000, A.D. 2027-Apr-24 00:00:00.0000, -4.882323803911698E+08, -5.266033221210241E+05, 9.739283382756191E+07,
2461526.500000000, A.D. 2027-May-01 00:00:00.0000, -4.886426174392462E+08, -9.860097278174430E+06, 9.792425570844533E+07,
2461533.500000000, A.D. 2027-May-08 00:00:00.0000, -4.888613483027823E+08, -1.918958454690235E+07, 9.841725945506263E+07,
2461540.500000000, A.D. 2027-May-15 00:00:00.0000, -4.888891562369361E+08, -2.851143948227888E+07, 9.887178738226214E+07,
2461547.500000000, A.D. 2027-May-22 00:00:00.0000, -4.887266727149398E+08, -3.782206147646652E+07, 9.928779287764476E+07,
2461554.500000000, A.D. 2027-May-29 00:00:00.0000, -4.883745776586029E+08, -4.711787640260017E+07, 9.966524018940541E+07,
2461561.500000000, A.D. 2027-Jun-05 00:00:00.0000, -4.878335978495579E+08, -5.639533738450675E+07, 1.000041041047921E+08,
2461568.500000000, A.D. 2027-Jun-12 00:00:00.0000, -4.871045055267180E+08, -6.565092446331418E+07, 1.003043697381873E+08,
2461575.500000000, A.D. 2027-Jun-19 00:00:00.0000, -4.861881175002484E+08, -7.488114409832174E+07, 1.005660323827270E+08,
2461582.500000000, A.D. 2027-Jun-26 00:00:00.0000, -4.850852945026386E+08, -8.408252876525407E+07, 1.007890973787644E+08,
2461589.500000000, A.D. 2027-Jul-03 00:00:00.0000, -4.837969406444652E+08, -9.325163664491928E+07, 1.009735799880113E+08,
2461596.500000000, A.D. 2027-Jul-10 00:00:00.0000, -4.823240029373642E+08, -1.023850513948163E+08, 1.011195052708809E+08,
2461603.500000000, A.D. 2027-Jul-17 00:00:00.0000, -4.806674708471444E+08, -1.114793820438978E+08, 1.012269079606856E+08,
2461610.500000000, A.D. 2027-Jul-24 00:00:00.0000, -4.788283757199352E+08, -1.205312630746458E+08, 1.012958323153817E+08,
2461617.500000000, A.D. 2027-Jul-31 00:00:00.0000, -4.768077896692418E+08, -1.295373544582290E+08, 1.013263319285172E+08,
2461624.500000000, A.D. 2027-Aug-07 00:00:00.0000, -4.746068241237366E+08, -1.384943404922795E+08, 1.013184696119548E+08,
2461631.500000000, A.D. 2027-Aug-14 00:00:00.0000, -4.722266303360934E+08, -1.473989276962228E+08, 1.012723175406993E+08,
2461638.500000000, A.D. 2027-Aug-21 00:00:00.0000, -4.696684012349465E+08, -1.562478451302890E+08, 1.011879573284595E+08,
2461645.500000000, A.D. 2027-Aug-28 00:00:00.0000, -4.669333711896631E+08, -1.650378459359239E+08, 1.010654798179818E+08,
2461652.500000000, A.D. 2027-Sep-04 00:00:00.0000, -4.640228148683638E+08, -1.737657075952967E+08, 1.009049848987865E+08,
2461659.500000000, A.D. 2027-Sep-11 00:00:00.0000, -4.609380465830224E+08, -1.824282315716665E+08, 1.007065814256245E+08,
2461666.500000000, A.D. 2027-Sep-18 00:00:00.0000, -4.576804199874043E+08, -1.910222429815848E+08, 1.004703871717377E+08,
2461673.500000000, A.D. 2027-Sep-25 00:00:00.0000, -4.542513278980457E+08, -1.995445903770705E+08, 1.001965287890430E+08,
2461680.500000000, A.D. 2027-Oct-02 00:00:00.0000, -4.506522021618802E+08, -2.079921456106364E+08, 9.988514176996550E+07,
2461687.500000000, A.D. 2027-Oct-09 00:00:00.0000, -4.468845135465817E+08, -2.163618037886085E+08, 9.953637040791410E+07,
2461694.500000000, A.D. 2027-Oct-16 00:00:00.0000, -4.429497715895385E+08, -2.246504833690701E+08, 9.915036774584588E+07,
2461701.500000000, A.D. 2027-Oct-23 00:00:00.0000, -4.388495241454514E+08, -2.328551264115857E+08, 9.872729548868313E+07,
2461708.500000000, A.D. 2027-Oct-30 00:00:00.0000, -4.345853562580662E+08, -2.409726983693180E+08, 9.826732389527324E+07,
2461715.500000000, A.D. 2027-Nov-06 00:00:00.0000, -4.301588895193164E+08, -2.490001862958055E+08, 9.777063184880009E+07,
2461722.500000000, A.D. 2027-Nov-13 00:00:00.0000, -4.255717839008269E+08, -2.569345975432847E+08, 9.723740711794834E+07,
2461729.500000000, A.D. 2027-Nov-20 00:00:00.0000, -4.208257391560794E+08, -2.647729611395749E+08, 9.666784636418557E+07,
2461736.500000000, A.D. 2027-Nov-27 00:00:00.0000, -4.159224941758476E+08, -2.725123288794562E+08, 9.606215498924412E+07,
2461743.500000000, A.D. 2027-Dec-04 00:00:00.0000, -4.108638263194338E+08, -2.801497752164601E+08, 9.542054708283021E+07,
2461750.500000000, A.D. 2027-Dec-11 00:00:00.0000, -4.056515512707637E+08, -2.876823969194989E+08, 9.474324544188815E+07,
2461757.500000000, A.D. 2027-Dec-18 00:00:00.0000, -4.002875231433097E+08, -2.951073128345987E+08, 9.403048160832825E+07,
2461764.500000000, A.D. 2027-Dec-25 00:00:00.0000, -3.947736346813815E+08, -3.024216637551861E+08, 9.328249591118377E+07,
2461771.500000000, A.D. 2028-Jan-01 00:00:00.0000, -3.891118175160905E+08, -3.096226123873754E+08, 9.249953751074848E+07,
$$EOE